EUTELSAT 21B            
1 38992U 12062B   25348.92009738  .00000150  00000+0  00000+0 0  9996
2 38992   0.0682  10.9755 0003423 263.0985 162.5990  1.00273460 47984
EUTELSAT 70B            
1 39020U 12069A   25348.92971745 -.00000023  00000+0  00000+0 0  9992
2 39020   0.0613 350.8642 0004302 257.9707 240.2090  1.00270952 47666
EUTELSAT 117 WEST A     
1 39122U 13012A   25348.89253722  .00000007  00000+0  00000+0 0  9999
2 39122   0.0198  29.1225 0002817 238.4725  20.7175  1.00272234 46583
EUTELSAT 7B             
1 39163U 13022A   25348.92336394  .00000068  00000+0  00000+0 0  9993
2 39163   0.0764  25.1173 0004676 294.6964 103.4419  1.00273897 46103
EXPRESS-AT1             
1 39612U 14010A   25348.42756762  .00000000  00000+0  00000+0 0  9996
2 39612   0.0196 344.8805 0000313 139.4475 168.9348  1.00273481 42967
EXPRESS-AT2             
1 39613U 14010B   25349.15733160 -.00000260  00000+0  00000+0 0  9994
2 39613   0.0156 287.4019 0001184  12.0254 341.1258  1.00273059 42653
EUTELSAT 3B             
1 39773U 14030A   25348.92336394  .00000040  00000+0  00000+0 0  9990
2 39773   0.0603 354.1693 0004391 236.9380 188.2286  1.00271327 42216
EUTELSAT 115 WEST B     
1 40425U 15010B   25348.41433435 -.00000006  00000+0  00000+0 0  9996
2 40425   0.0412 162.7061 0000104 133.9502 180.9440  1.00269432 39549
